{"type":"FeatureCollection","features":[{"type":"Feature","geometry":{"type":"MultiPolygon","coordinates":[[[[120.8607,5.5744],[120.8198,5.5433],[120.8978,5.4985],[120.8607,5.5744]]],[[[121.9024,6.0336],[121.7766,6.0774],[121.8684,5.9997],[121.9024,6.0336]]],[[[125.7913,6.9482],[125.7819,7.1352],[125.7066,7.1918],[125.6741,7.0702],[125.7176,7.0522],[125.7537,6.9175],[125.7913,6.9482]]],[[[122.9717,7.3836],[122.905,7.4377],[122.883,7.3973],[122.8284,7.4308],[122.7942,7.3839],[122.8167,7.2949],[122.9717,7.3836]]],[[[125.9902,9.6857],[125.9728,9.7546],[125.9273,9.7387],[125.9251,9.5895],[125.9785,9.5752],[125.9902,9.6857]]],[[[126.5692,7.3011],[126.6087,7.4653],[126.5692,7.6264],[126.5829,7.7194],[126.4875,7.7467],[126.4061,7.8332],[126.3955,7.9333],[126.4343,8.0059],[126.4631,8.2299],[126.3616,8.1872],[126.3386,8.2146],[126.3884,8.2929],[126.3325,8.3471],[126.4116,8.4661],[126.3701,8.5418],[126.2205,8.5555],[126.1585,8.5276],[126.1105,8.6071],[126.1978,8.6883],[126.2546,8.6852],[126.2402,8.7351],[126.3001,8.7683],[126.3455,8.8533],[126.3128,8.9562],[126.179,9.093],[126.2199,9.3057],[126.0759,9.2395],[126.0117,9.2939],[125.9939,9.3978],[125.9168,9.3954],[125.9597,9.4394],[125.9341,9.4923],[125.849,9.5372],[125.7127,9.5759],[125.6201,9.6298],[125.5892,9.7546],[125.4595,9.8229],[125.3987,9.6811],[125.4663,9.4084],[125.542,9.1892],[125.5265,9.0262],[125.4622,8.9852],[125.3118,8.9943],[125.2185,9.0881],[125.1792,8.998],[125.1873,8.8759],[125.1157,8.8306],[125.0264,8.9185],[124.9153,8.9941],[124.8208,9.0146],[124.7808,8.9491],[124.7879,8.7336],[124.7512,8.6928],[124.7736,8.5964],[124.7532,8.5002],[124.6631,8.4758],[124.4802,8.5828],[124.47,8.6248],[124.4058,8.6079],[124.3218,8.5146],[124.2323,8.2129],[123.9689,8.1678],[123.6764,7.9634],[123.6847,8.0368],[123.7678,8.059],[123.8733,8.1533],[123.8661,8.3643],[123.8447,8.4522],[123.7588,8.6075],[123.6291,8.6511],[123.5718,8.6047],[123.5218,8.6225],[123.513,8.6989],[123.3901,8.7194],[123.4364,8.6495],[123.3635,8.6233],[123.3311,8.5466],[123.242,8.5191],[123.2113,8.5418],[123.082,8.5192],[122.9922,8.3972],[122.9582,8.3085],[123.0137,8.2324],[122.9246,8.1501],[122.7588,8.116],[122.6792,8.1642],[122.5999,8.0929],[122.438,8.0666],[122.2922,8.0099],[122.2396,7.9657],[122.1289,7.815],[122.1135,7.6033],[122.146,7.5888],[122.0776,7.528],[122.0456,7.4425],[122.0469,7.3011],[121.9334,7.2179],[121.8978,7.1403],[121.8989,7.0572],[121.937,6.9789],[122.0379,6.9174],[122.1187,6.8964],[122.1545,6.9281],[122.2435,7.0993],[122.2659,7.2491],[122.3001,7.3209],[122.3791,7.3916],[122.348,7.4525],[122.4856,7.5785],[122.4336,7.5786],[122.5115,7.6957],[122.5967,7.7614],[122.7043,7.7883],[122.8147,7.7434],[122.7937,7.671],[122.8284,7.5277],[122.7899,7.4847],[122.8373,7.4584],[122.9172,7.5475],[122.9956,7.4673],[123.0503,7.6551],[123.1179,7.7414],[123.1773,7.5891],[123.1221,7.5506],[123.1704,7.486],[123.2803,7.5202],[123.3421,7.4205],[123.4194,7.3723],[123.4517,7.4525],[123.3535,7.5721],[123.4857,7.6636],[123.4978,7.7088],[123.4447,7.8013],[123.5869,7.8393],[123.7039,7.8094],[123.7942,7.7105],[123.9109,7.6989],[124.0652,7.6027],[124.1878,7.4103],[124.2468,7.4041],[124.1838,7.2264],[124.0295,7.1151],[123.9749,6.9653],[123.9655,6.8213],[124.0366,6.7997],[124.0549,6.559],[124.033,6.5424],[124.0549,6.4377],[124.2458,6.1865],[124.4219,6.1103],[124.5962,5.9989],[124.9387,5.864],[125.0691,5.8617],[125.0887,5.8847],[125.1553,6.1002],[125.2507,6.0931],[125.278,5.9792],[125.1812,5.7983],[125.2787,5.7165],[125.3024,5.5922],[125.3875,5.5738],[125.6673,5.9501],[125.6992,6.0405],[125.7066,6.1497],[125.6448,6.3441],[125.5736,6.5169],[125.5345,6.5128],[125.4651,6.5947],[125.3975,6.5985],[125.3776,6.6742],[125.3889,6.7683],[125.4806,6.9132],[125.5099,7.0156],[125.6035,7.0546],[125.6581,7.1291],[125.6569,7.237],[125.8069,7.3511],[125.8532,7.336],[125.8506,7.2539],[125.9026,7.1011],[125.9865,7.0063],[125.9768,6.9396],[126.0221,6.8668],[126.0791,6.8425],[126.0964,6.725],[126.0827,6.6397],[126.0951,6.5141],[126.2061,6.2993],[126.2269,6.4689],[126.2288,6.6162],[126.2546,6.7667],[126.168,6.8826],[126.2129,6.934],[126.2683,6.8902],[126.3088,6.798],[126.3433,6.8492],[126.3018,6.8933],[126.3495,7.0001],[126.4662,7.0031],[126.4764,7.0662],[126.5798,7.2011],[126.6104,7.277],[126.5692,7.3011]]],[[[125.2951,9.9706],[125.2393,10.1039],[125.1491,10.166],[125.1458,10.0707],[125.1987,10.0358],[125.2674,9.9245],[125.2951,9.9706]]],[[[124.3797,10.6913],[124.341,10.7118],[124.2844,10.6038],[124.39,10.6413],[124.3797,10.6913]]],[[[124.4658,10.7136],[124.4085,10.6838],[124.4624,10.631],[124.5207,10.6658],[124.4658,10.7136]]],[[[125.822,10.7347],[125.7605,10.741],[125.7315,10.8081],[125.6841,10.7528],[125.7694,10.7004],[125.822,10.7347]]],[[[119.6321,11.0699],[119.5798,11.0978],[119.5798,11.046],[119.648,11.0153],[119.6321,11.0699]]],[[[124.5996,11.5634],[124.556,11.6602],[124.4959,11.6948],[124.3491,11.6801],[124.4133,11.5465],[124.4863,11.4882],[124.6091,11.4866],[124.5996,11.5634]]],[[[124.8152,11.6323],[124.7327,11.7216],[124.7406,11.6506],[124.8316,11.5363],[124.8562,11.6049],[124.8152,11.6323]]],[[[122.2972,18.4039],[122.2202,18.5224],[122.1528,18.5188],[122.1116,18.3928],[121.9746,18.286],[121.8528,18.288],[121.5921,18.3847],[121.2663,18.5549],[121.1707,18.6255],[121.1068,18.6427],[120.9269,18.5662],[120.8508,18.6389],[120.7927,18.6361],[120.7708,18.5615],[120.6111,18.5386],[120.5618,18.4697],[120.5862,18.3645],[120.5661,18.2922],[120.4701,18.091],[120.4772,18.0048],[120.4279,17.9167],[120.3913,17.7814],[120.4024,17.697],[120.3532,17.6781],[120.3338,17.5564],[120.4021,17.5189],[120.4417,17.368],[120.4082,17.3227],[120.4031,17.2216],[120.4363,17.008],[120.4273,16.9619],[120.3122,16.7778],[120.3259,16.7126],[120.3067,16.545],[120.3363,16.2922],[120.3855,16.2519],[120.4021,16.1655],[120.2991,16.0174],[120.2922,16.0556],[120.1853,16.0334],[120.1056,16.0696],[120.0912,16.1535],[119.9019,16.2508],[119.9258,16.3451],[119.8916,16.3874],[119.8125,16.3675],[119.7557,16.2034],[119.7783,16.1378],[119.7578,16.059],[119.7708,15.915],[119.8283,15.9557],[119.8986,15.8532],[119.8894,15.748],[119.9197,15.6903],[119.9043,15.5971],[119.9639,15.5143],[119.8882,15.429],[120.0051,15.2694],[120.053,15.0624],[120.0498,14.9312],[120.0799,14.8039],[120.1755,14.7574],[120.2093,14.88],[120.2922,14.8257],[120.2424,14.7296],[120.2854,14.6538],[120.3674,14.6208],[120.4021,14.4558],[120.5646,14.4412],[120.5979,14.5056],[120.5784,14.6594],[120.5393,14.7028],[120.5452,14.8369],[120.6057,14.8848],[120.5939,14.8183],[120.6421,14.787],[120.8301,14.7636],[120.9365,14.6674],[120.9802,14.5574],[120.9704,14.5019],[120.8779,14.4589],[120.7131,14.2985],[120.6275,14.2696],[120.5735,14.1745],[120.6195,14.1042],[120.6013,13.9691],[120.6281,13.8109],[120.6634,13.7754],[120.6623,13.8593],[120.7229,13.8554],[120.7048,13.9274],[120.895,13.9064],[120.929,13.7836],[120.9031,13.6929],[120.981,13.7805],[121.0398,13.7587],[121.0339,13.6418],[121.0804,13.6191],[121.1587,13.6395],[121.2788,13.595],[121.3748,13.6675],[121.43,13.6569],[121.4334,13.7964],[121.4846,13.8518],[121.69,13.926],[121.7249,13.9691],[121.8272,13.8997],[122.1184,13.7521],[122.2075,13.6143],[122.319,13.5922],[122.5011,13.3681],[122.5051,13.2392],[122.5881,13.174],[122.6907,13.2287],[122.6727,13.3793],[122.6428,13.4576],[122.4976,13.652],[122.5096,13.82],[122.4163,13.9617],[122.5159,13.9344],[122.5369,13.9611],[122.6227,13.892],[122.6658,13.8195],[122.7669,13.7995],[122.8626,13.6948],[122.8147,13.6538],[122.972,13.5275],[123.1688,13.4492],[123.1909,13.359],[123.3008,13.2355],[123.279,13.1202],[123.3101,13.0124],[123.4413,13.0369],[123.5984,12.8966],[123.823,12.877],[123.8934,12.9748],[124.0252,12.9553],[124.0025,12.8797],[123.9067,12.8416],[123.863,12.8724],[123.7936,12.8314],[123.8421,12.8012],[123.8425,12.7162],[123.8786,12.6452],[123.9832,12.5468],[124.0952,12.5571],[124.0884,12.6288],[124.1294,12.6772],[124.1431,12.7973],[124.1162,12.9164],[124.1846,13.0573],[124.1162,13.0744],[124.0816,13.0095],[123.9792,13.0983],[123.8709,13.1429],[123.8181,13.071],[123.7458,13.0642],[123.7676,13.2243],[123.8215,13.2429],[123.7315,13.3625],[123.6672,13.4856],[123.6055,13.5167],[123.5285,13.6268],[123.5881,13.7289],[123.648,13.7036],[123.7974,13.688],[123.8594,13.7426],[123.9727,13.7293],[123.9378,13.784],[123.804,13.8376],[123.7117,13.9344],[123.6814,13.8847],[123.4447,13.9617],[123.4242,13.9064],[123.3451,14.0937],[123.3143,14.0511],[123.2523,14.0681],[123.2181,13.9927],[123.2806,13.9361],[123.315,13.8205],[123.2666,13.7494],[123.1082,13.7221],[123.0498,13.7758],[123.0842,13.9743],[123.0332,14.0231],[123.0122,14.1057],[122.8533,14.2786],[122.6799,14.3505],[122.6907,14.2912],[122.471,14.3459],[122.3662,14.2615],[122.3275,14.1882],[122.348,14.1541],[122.3001,14.092],[122.2444,14.196],[122.1956,14.1838],[122.1862,14.1105],[122.2908,14.0231],[122.2933,13.9701],[122.2024,13.9946],[122.2319,13.9064],[122.0879,13.9378],[121.9363,13.9952],[121.78,14.1262],[121.7316,14.1951],[121.759,14.2466],[121.7347,14.3287],[121.6624,14.4174],[121.6107,14.6126],[121.6292,14.7028],[121.7261,14.7202],[121.5945,14.8592],[121.615,14.8729],[121.5081,15.0628],[121.4876,15.1633],[121.4137,15.2316],[121.3792,15.3082],[121.4793,15.4562],[121.4876,15.5204],[121.6292,15.6611],[121.5945,15.6748],[121.6318,15.757],[121.5746,15.7744],[121.5549,15.8289],[121.5778,15.9321],[121.6423,15.9696],[121.7523,16.0769],[121.9548,16.1391],[122.0669,16.1901],[122.0774,16.2413],[122.1353,16.2607],[122.0811,16.1484],[121.9917,16.0385],[122.1773,16.2303],[122.2319,16.319],[122.2053,16.4239],[122.2388,16.5041],[122.3455,16.6425],[122.4647,16.8951],[122.4729,16.9897],[122.5291,17.0905],[122.501,17.1398],[122.4168,17.1458],[122.4094,17.2752],[122.3816,17.3474],[122.2511,17.3602],[122.1566,17.6193],[122.1401,17.7983],[122.1834,17.9844],[122.18,18.1208],[122.307,18.2513],[122.325,18.3366],[122.2972,18.4039]]],[[[120.252,5.2665],[120.1986,5.3496],[120.0869,5.259],[119.9649,5.2226],[119.9427,5.1901],[119.8125,5.1225],[119.8298,5.0488],[119.9541,5.0755],[120.0254,5.1605],[120.0859,5.1507],[120.1209,5.218],[120.1896,5.1965],[120.2268,5.1294],[120.252,5.2665]]],[[[120.5881,6.3808],[120.4946,6.2493],[120.5829,6.2615],[120.5881,6.3808]]],[[[122.2967,6.6332],[122.0667,6.7407],[121.9402,6.6773],[121.8392,6.6689],[121.8145,6.5929],[121.875,6.5749],[121.8801,6.5032],[121.9623,6.4049],[122.1886,6.4511],[122.2354,6.5712],[122.3352,6.6033],[122.2967,6.6332]]],[[[118.5376,7.0063],[118.5246,7.0436],[118.4314,7.0271],[118.4452,6.9823],[118.5187,6.9709],[118.5376,7.0063]]],[[[117.085,8.0578],[116.9617,8.062],[116.9549,7.926],[117.0016,7.8237],[117.0868,7.8721],[117.085,8.0578]]],[[[117.0305,8.0683],[117.0454,8.1358],[116.9959,8.103],[117.0305,8.0683]]],[[[117.3255,8.3227],[117.27,8.2675],[117.2897,8.1843],[117.3425,8.1972],[117.3553,8.3027],[117.3255,8.3227]]],[[[124.7842,9.1998],[124.7085,9.2502],[124.6467,9.2189],[124.6721,9.1254],[124.763,9.079],[124.8013,9.0963],[124.7842,9.1998]]],[[[123.698,9.165],[123.7039,9.2333],[123.6144,9.2893],[123.565,9.2261],[123.4746,9.1971],[123.5612,9.1142],[123.64,9.0986],[123.698,9.165]]],[[[126.1659,9.8292],[126.1106,9.8571],[126.138,9.9019],[126.0807,10.0557],[125.966,9.8502],[126.0417,9.7751],[126.1201,9.7589],[126.1782,9.7878],[126.1659,9.8292]]],[[[124.5653,9.8708],[124.5886,10.0239],[124.4082,10.1197],[124.356,10.1103],[124.3313,10.1615],[124.1846,10.1445],[124.0752,10.0483],[124.0508,9.9793],[123.8861,9.9149],[123.8091,9.8027],[123.8079,9.74],[123.8739,9.7211],[123.8923,9.6321],[124.0652,9.5954],[124.2942,9.6068],[124.4105,9.6584],[124.4295,9.715],[124.4998,9.7683],[124.5852,9.7321],[124.624,9.8018],[124.5653,9.8708]]],[[[125.7196,9.9117],[125.6815,9.9581],[125.7066,10.0693],[125.6581,10.2617],[125.6848,10.3999],[125.6574,10.4564],[125.6148,10.381],[125.5562,10.3708],[125.5221,10.317],[125.542,10.1997],[125.5142,10.2071],[125.4971,10.1035],[125.5354,10.0609],[125.5967,10.0898],[125.5832,10.0097],[125.6581,9.939],[125.6636,9.8891],[125.7196,9.9117]]],[[[119.9502,10.6037],[119.8499,10.6448],[119.7783,10.5355],[119.8065,10.4461],[119.9149,10.4809],[120.0112,10.5653],[119.9502,10.6037]]],[[[122.7111,10.7347],[122.6702,10.762],[122.6232,10.6845],[122.5746,10.6658],[122.5286,10.5912],[122.5535,10.5491],[122.4824,10.5034],[122.5305,10.4232],[122.6345,10.4442],[122.6869,10.506],[122.7371,10.64],[122.7111,10.7347]]],[[[123.5745,10.831],[123.5218,10.9199],[123.3296,10.9514],[123.2136,10.9964],[123.0877,10.9259],[123.0026,10.9128],[122.9507,10.8272],[122.9717,10.7211],[122.9104,10.5976],[122.8239,10.5329],[122.8218,10.4725],[122.8694,10.3505],[122.8553,10.228],[122.8789,10.1181],[122.7078,9.9864],[122.4746,9.9744],[122.3952,9.8366],[122.4026,9.6994],[122.4304,9.7137],[122.4966,9.5617],[122.5995,9.4327],[122.7248,9.3711],[122.811,9.3636],[122.8694,9.3227],[122.9336,9.1215],[123.0332,9.0353],[123.161,9.0657],[123.2302,9.1076],[123.2986,9.215],[123.3211,9.3432],[123.1354,9.6184],[123.1704,9.696],[123.1567,9.8676],[123.2904,10.0936],[123.3403,10.2607],[123.3447,10.348],[123.3897,10.4372],[123.4857,10.5491],[123.5169,10.681],[123.5745,10.831]]],[[[124.0474,10.8341],[124.0549,11.0637],[123.9995,11.0773],[124.0413,11.1301],[124.0747,11.2691],[124.0183,11.2585],[123.9519,11.1567],[123.9177,11.029],[123.9346,10.9704],[123.8493,10.7526],[123.765,10.64],[123.7068,10.462],[123.5969,10.3178],[123.508,10.1222],[123.4225,10.0375],[123.3833,9.9427],[123.4107,9.9226],[123.3652,9.7853],[123.3143,9.5076],[123.3211,9.4291],[123.3696,9.4257],[123.4883,9.5665],[123.5095,9.6535],[123.6018,9.8676],[123.6248,9.8793],[123.6433,10.039],[123.7195,10.1568],[123.8081,10.2366],[123.9729,10.3266],[124.04,10.4844],[124.0508,10.6274],[124.0208,10.7477],[124.0474,10.8341]]],[[[123.801,11.1791],[123.7458,11.2925],[123.7048,11.2412],[123.7337,11.1543],[123.801,11.1791]]],[[[119.6719,10.5526],[119.6345,10.6522],[119.5908,10.6724],[119.5934,10.8371],[119.5193,10.8377],[119.5046,10.9709],[119.5724,11.0153],[119.5164,11.1175],[119.569,11.2617],[119.502,11.4233],[119.4206,11.2976],[119.429,11.2275],[119.388,11.1866],[119.4321,11.1222],[119.4061,11.0495],[119.335,11.1029],[119.3191,10.943],[119.3701,10.8677],[119.4568,10.831],[119.4695,10.741],[119.3333,10.8235],[119.2886,10.8715],[119.2917,10.9327],[119.2225,10.9417],[119.2576,10.8911],[119.2234,10.8508],[119.345,10.7236],[119.3191,10.5901],[119.2472,10.543],[119.2781,10.5082],[119.1272,10.3949],[119.1204,10.4877],[119.072,10.3915],[119.0117,10.4052],[118.9844,10.3441],[119.0248,10.3096],[118.9497,10.2822],[118.9336,10.2097],[118.8223,10.1945],[118.8386,10.0999],[118.8011,10.049],[118.7717,10.1308],[118.5305,9.7742],[118.3601,9.6584],[118.3442,9.6032],[118.1336,9.3847],[118.127,9.3378],[118.0032,9.2333],[117.9895,9.2674],[117.9045,9.2612],[117.7966,9.1633],[117.7681,9.0864],[117.6555,9.0579],[117.6227,8.9918],[117.5198,8.8997],[117.4504,8.7912],[117.376,8.7468],[117.2915,8.6408],[117.2223,8.5002],[117.198,8.3348],[117.3186,8.4518],[117.4722,8.5138],[117.5129,8.5068],[117.5656,8.6611],[117.6673,8.6647],[117.7737,8.7031],[117.9104,8.8297],[118.0137,8.8876],[118.0584,8.9521],[118.1321,9.1267],[118.365,9.1931],[118.4308,9.2732],[118.4979,9.3137],[118.6692,9.57],[118.6953,9.5781],[118.7429,9.6968],[118.7009,9.7755],[118.7778,9.7342],[118.7505,9.8875],[118.7742,9.9341],[118.8748,9.9719],[119.072,10.008],[119.1963,10.0563],[119.2372,10.1793],[119.356,10.3288],[119.4727,10.3781],[119.5632,10.3735],[119.7254,10.5186],[119.6719,10.5526]]],[[[119.8672,11.5156],[119.8125,11.4604],[119.7852,11.4945],[119.7708,11.4063],[119.8698,11.4406],[119.8672,11.5156]]],[[[125.2739,10.3232],[125.1987,10.4331],[125.1941,10.603],[125.1203,10.7031],[125.0272,10.7429],[125.0061,10.7973],[125.0531,10.9682],[125.0276,11.176],[125.0418,11.248],[124.9663,11.2944],[124.9841,11.3813],[124.9297,11.4213],[124.8457,11.433],[124.7444,11.3286],[124.6299,11.3044],[124.4896,11.4467],[124.4802,11.3852],[124.4431,11.4469],[124.3291,11.5571],[124.3114,11.4668],[124.4043,11.3027],[124.418,11.1286],[124.3884,11.0659],[124.4154,11.02],[124.4021,10.9298],[124.5278,10.8781],[124.5496,10.9833],[124.6223,11.002],[124.6917,10.9396],[124.7788,10.8214],[124.7981,10.6591],[124.744,10.4937],[124.7389,10.3955],[124.7941,10.3027],[124.7804,10.1519],[124.8828,10.135],[125.0317,10.0202],[125.0422,10.049],[125.0002,10.1997],[124.993,10.3349],[125.0104,10.383],[125.0886,10.229],[125.1511,10.1855],[125.1409,10.2788],[125.2293,10.2543],[125.2739,10.3232]]],[[[123.1704,11.4808],[123.1178,11.5482],[122.9007,11.4379],[122.8943,11.4872],[122.9445,11.5224],[122.855,11.5913],[122.7248,11.6118],[122.686,11.5458],[122.6042,11.5171],[122.5881,11.5634],[122.5125,11.5981],[122.388,11.7274],[122.2654,11.7855],[122.1179,11.8236],[121.9637,11.9339],[121.8968,11.8938],[121.8539,11.7694],[122.0845,11.7247],[122.1072,11.6579],[122.0531,11.2338],[122.0451,11.0174],[121.978,10.9055],[121.937,10.7757],[121.978,10.7102],[121.9849,10.6249],[121.9325,10.5087],[121.9497,10.4332],[122.0396,10.4666],[122.1018,10.5693],[122.2266,10.6422],[122.451,10.6863],[122.5899,10.6987],[122.6306,10.7744],[122.7615,10.8107],[122.798,10.8754],[122.78,10.9569],[122.8391,11.0181],[122.9141,11.0263],[123.0149,11.0916],[123.0413,11.1634],[123.1314,11.1827],[123.1135,11.2667],[123.1604,11.3804],[123.1704,11.4808]]],[[[120.0248,11.893],[119.9197,11.9815],[119.854,11.9544],[119.9224,11.8377],[119.9292,11.7756],[120.0011,11.7686],[119.9564,11.7347],[119.967,11.6644],[120.0142,11.6821],[120.0799,11.7893],[120.0248,11.893]]],[[[120.3475,12.0295],[120.3475,12.0673],[120.2583,12.1318],[120.2241,12.2192],[120.1961,12.112],[120.0215,12.2531],[119.9359,12.2765],[119.885,12.3227],[119.8604,12.1592],[119.895,12.2077],[119.9841,12.0257],[120.1346,11.9748],[120.1421,12.0295],[120.2376,11.9879],[120.3395,12.0006],[120.3475,12.0295]]],[[[122.6875,12.4028],[122.6492,12.4732],[122.4811,12.4934],[122.423,12.4629],[122.4319,12.4097],[122.512,12.3776],[122.6118,12.2765],[122.6702,12.3175],[122.6875,12.4028]]],[[[125.7127,11.1487],[125.6289,11.2363],[125.5718,11.1926],[125.5662,11.2681],[125.6271,11.3135],[125.6377,11.3685],[125.521,11.4604],[125.5242,11.5073],[125.4768,11.6688],[125.5005,11.7011],[125.4572,11.7857],[125.452,11.9641],[125.5244,12.0462],[125.4574,12.1071],[125.5376,12.1724],[125.5005,12.2486],[125.3496,12.2895],[125.3128,12.3667],[125.3496,12.3994],[125.2721,12.499],[125.1663,12.5781],[125.1091,12.5793],[125.0617,12.5297],[124.9797,12.5608],[124.8679,12.5303],[124.6792,12.5159],[124.3584,12.5449],[124.2935,12.58],[124.2762,12.5333],[124.3421,12.3857],[124.3908,12.2219],[124.4932,12.0978],[124.5693,12.0508],[124.6799,12.0297],[124.7395,11.9265],[124.8079,11.8991],[124.8924,11.7615],[124.9282,11.7414],[125.0036,11.7756],[125.0542,11.7382],[124.9912,11.6703],[125.0002,11.6248],[124.9487,11.5702],[124.8903,11.5702],[124.8283,11.5087],[124.8965,11.4701],[124.9115,11.5019],[125.0029,11.4197],[125.001,11.2898],[125.1328,11.2821],[125.1987,11.2275],[125.2468,11.0922],[125.3171,11.1496],[125.4402,11.0976],[125.4824,11.1276],[125.5278,11.0904],[125.5383,11.1457],[125.6001,11.1183],[125.6515,11.1494],[125.7061,11.1168],[125.7196,11.0495],[125.7796,11.0524],[125.7127,11.1487]]],[[[124.0549,11.7998],[124.0583,11.8752],[123.9995,12.0084],[124.0549,11.9544],[123.8823,12.2128],[123.7949,12.2469],[123.7936,12.1872],[123.7044,12.3207],[123.6092,12.3789],[123.5471,12.4609],[123.4481,12.5124],[123.356,12.4956],[123.3211,12.5707],[123.2422,12.5954],[123.2424,12.4646],[123.2734,12.4237],[123.2181,12.2281],[123.294,12.2355],[123.2772,12.1643],[123.216,12.1335],[123.1814,11.9309],[123.3547,12.0954],[123.4242,12.2008],[123.5397,12.194],[123.6148,12.0793],[123.7458,11.9811],[123.7117,11.9544],[123.764,11.9157],[123.8556,11.9134],[124.0208,11.7831],[124.0549,11.7998]]],[[[122.2796,12.6055],[122.2482,12.5759],[122.2796,12.4745],[122.3113,12.5367],[122.2796,12.6055]]],[[[122.1152,12.6663],[121.9909,12.5712],[121.9932,12.4418],[121.9344,12.3801],[121.9207,12.3029],[122.0021,12.2444],[121.965,12.1614],[122.0191,12.1046],[122.0191,12.1561],[122.0808,12.3155],[122.1358,12.5608],[122.1152,12.6663]]],[[[123.7874,12.3756],[123.7705,12.4711],[123.7048,12.6254],[123.6092,12.6874],[123.5832,12.6239],[123.7825,12.3411],[123.7874,12.3756]]],[[[123.2803,12.8649],[123.1602,12.9376],[123.0398,13.1281],[122.9922,13.1536],[122.9445,13.1113],[122.9507,13.0437],[123.0355,13.0044],[123.1853,12.8585],[123.2734,12.8109],[123.3411,12.7182],[123.3609,12.7365],[123.2866,12.815],[123.2803,12.8649]]],[[[121.5261,12.7045],[121.4856,12.7685],[121.4895,13.0368],[121.5492,13.0906],[121.527,13.1408],[121.4475,13.139],[121.4305,13.2243],[121.1971,13.4409],[121.1216,13.372],[121.1087,13.416],[121.0427,13.413],[120.957,13.503],[120.7373,13.4682],[120.5654,13.5131],[120.3566,13.5184],[120.3067,13.4443],[120.3401,13.3863],[120.44,13.4272],[120.48,13.3015],[120.5262,13.2492],[120.6423,13.1833],[120.7583,13.0024],[120.7979,12.7294],[120.8545,12.7153],[120.9124,12.6347],[120.9164,12.5124],[120.9811,12.4227],[121.0873,12.3237],[121.1136,12.2513],[121.245,12.2144],[121.273,12.269],[121.3843,12.3686],[121.4436,12.3585],[121.4124,12.415],[121.4378,12.5216],[121.4934,12.5493],[121.5464,12.6441],[121.5261,12.7045]]],[[[122.1016,13.4167],[122.1152,13.465],[121.989,13.5305],[121.9092,13.5229],[121.8731,13.5685],[121.8143,13.4505],[121.8172,13.3419],[121.8649,13.2844],[121.9932,13.2016],[122.1203,13.3566],[122.1016,13.4167]]],[[[120.2609,13.7116],[120.2376,13.8046],[120.1037,13.8663],[120.0923,13.7945],[120.2609,13.7116]]],[[[124.418,13.873],[124.2774,13.9555],[124.2526,14.0467],[124.2009,14.0922],[124.1245,14.0494],[124.1359,13.9073],[124.1218,13.7798],[124.0261,13.6696],[124.0474,13.606],[124.1702,13.5298],[124.2935,13.6041],[124.3333,13.5725],[124.39,13.7116],[124.418,13.873]]],[[[122.1047,14.1026],[121.9451,14.2326],[121.9652,14.143],[122.1584,14.0068],[122.1727,14.0535],[122.1047,14.1026]]],[[[122.2354,14.7978],[122.2039,14.8388],[122.105,14.8378],[122.2415,14.7411],[122.2354,14.7978]]],[[[122.0054,15.0107],[122.0051,15.0386],[121.8442,15.0454],[121.8184,14.946],[121.8818,14.8837],[121.9349,14.7258],[121.9402,14.6401],[122.0042,14.6737],[122.0259,14.7363],[121.9717,14.9056],[122.0129,14.9329],[122.0054,15.0107]]],[[[121.3884,18.903],[121.28,18.8806],[121.3186,18.8432],[121.4778,18.8819],[121.3884,18.903]]],[[[121.9712,18.9849],[121.9024,19.0054],[121.8342,18.8343],[121.8657,18.8219],[121.9626,18.9387],[121.9712,18.9849]]],[[[121.2109,19.1767],[121.1968,19.0655],[121.259,19.0457],[121.2109,19.1767]]],[[[121.5261,19.3207],[121.5166,19.3935],[121.3958,19.4033],[121.3499,19.3703],[121.406,19.2985],[121.4983,19.2593],[121.5261,19.3207]]],[[[121.9773,19.5774],[121.8968,19.5569],[121.9609,19.4918],[121.9773,19.5774]]],[[[121.8416,20.346],[121.8508,20.2734],[121.8921,20.2973],[121.8416,20.346]]],[[[122.0098,20.4885],[121.9224,20.3933],[122.0265,20.4558],[122.0098,20.4885]]],[[[121.8772,20.7703],[121.8377,20.8203],[121.7912,20.73],[121.8034,20.6911],[121.8772,20.7703]]],[[[119.4832,4.8509],[119.4354,4.9028],[119.4627,4.7758],[119.4566,4.6557],[119.4966,4.7336],[119.4832,4.8509]]],[[[121.2175,5.8207],[121.1629,5.848],[121.1621,5.7876],[121.2175,5.8207]]],[[[121.3816,6.0057],[121.2713,6.0262],[121.2178,5.9989],[121.179,6.0636],[121.0422,6.0971],[120.9055,6.015],[120.8718,5.961],[120.9341,5.8857],[121.0083,5.9238],[121.0811,5.8882],[121.2278,5.9421],[121.2814,5.859],[121.4194,5.948],[121.3816,6.0057]]],[[[121.6289,6.6574],[121.5825,6.6317],[121.6233,6.5675],[121.6289,6.6574]]],[[[121.0945,10.8958],[121.0252,10.8644],[121.0872,10.8235],[121.0945,10.8958]]],[[[120.2852,11.9302],[120.2033,11.9476],[120.2679,11.8162],[120.2852,11.9302]]],[[[121.4064,12.0624],[121.3677,12.1104],[121.3609,12.0432],[121.4064,12.0624]]],[[[119.7966,5.0576],[119.7984,5.121],[119.7487,5.0627],[119.7966,5.0576]]],[[[125.4187,5.4255],[125.3342,5.3877],[125.4187,5.3685],[125.4187,5.4255]]],[[[123.8413,9.6424],[123.7272,9.5912],[123.8045,9.5603],[123.8683,9.6205],[123.8413,9.6424]]],[[[124.6069,10.1403],[124.5218,10.112],[124.5404,10.0609],[124.6069,10.1403]]],[[[121.4741,11.8668],[121.4126,11.8403],[121.4954,11.8278],[121.4741,11.8668]]],[[[121.116,12.1968],[121.0881,12.2671],[121.0396,12.2515],[121.0901,12.1743],[121.116,12.1968]]],[[[124.1486,13.1858],[124.2092,13.1782],[124.1388,13.2342],[124.0656,13.2108],[124.1486,13.1858]]],[[[124.0863,13.2604],[123.9147,13.2899],[123.9393,13.2445],[124.0254,13.222],[124.0863,13.2604]]],[[[123.8903,13.2741],[123.9221,13.33],[123.8589,13.3538],[123.846,13.2702],[123.8903,13.2741]]],[[[122.4118,14.7258],[122.3164,14.6989],[122.3978,14.6859],[122.4118,14.7258]]],[[[120.0051,16.2686],[119.9732,16.3506],[119.9224,16.3038],[119.9929,16.2302],[120.0051,16.2686]]],[[[123.9916,10.3243],[123.9332,10.2543],[123.976,10.2554],[124.0438,10.3243],[123.9916,10.3243]]]]},"properties":{}}]}
